CCSDS_OMM_VERS = 2.0
CREATION_DATE  = 
ORIGINATOR     = 

OBJECT_NAME    = CORAL
OBJECT_ID      = 1998-067YA
CENTER_NAME    = EARTH
REF_FRAME      = TEME
TIME_SYSTEM    = UTC
MEAN_ELEMENT_THEORY = SGP/SGP4

EPOCH          = 2026-03-22T02:25:09.700608
MEAN_MOTION    = 15.56342856
ECCENTRICITY   = .00121878
INCLINATION    = 51.6311
RA_OF_ASC_NODE = 9.5362
ARG_OF_PERICENTER = 219.6272
MEAN_ANOMALY   = 140.3830

EPHEMERIS_TYPE = 0
CLASSIFICATION_TYPE = U
NORAD_CAT_ID   = 67684
ELEMENT_SET_NO = 999
REV_AT_EPOCH   = 672
BSTAR          = .13310514E-2
MEAN_MOTION_DOT = .96553E-3
MEAN_MOTION_DDOT = 0

CCSDS_OMM_VERS = 2.0
CREATION_DATE  = 
ORIGINATOR     = 

OBJECT_NAME    = GXIBA-1
OBJECT_ID      = 1998-067YB
CENTER_NAME    = EARTH
REF_FRAME      = TEME
TIME_SYSTEM    = UTC
MEAN_ELEMENT_THEORY = SGP/SGP4

EPOCH          = 2026-03-22T06:33:11.551104
MEAN_MOTION    = 15.53290377
ECCENTRICITY   = .00116284
INCLINATION    = 51.6327
RA_OF_ASC_NODE = 9.1857
ARG_OF_PERICENTER = 227.8880
MEAN_ANOMALY   = 132.1122

EPHEMERIS_TYPE = 0
CLASSIFICATION_TYPE = U
NORAD_CAT_ID   = 67685
ELEMENT_SET_NO = 999
REV_AT_EPOCH   = 674
BSTAR          = .60489181E-3
MEAN_MOTION_DOT = .38654E-3
MEAN_MOTION_DDOT = 0

CCSDS_OMM_VERS = 2.0
CREATION_DATE  = 
ORIGINATOR     = 

OBJECT_NAME    = UITMSAT-2
OBJECT_ID      = 1998-067YC
CENTER_NAME    = EARTH
REF_FRAME      = TEME
TIME_SYSTEM    = UTC
MEAN_ELEMENT_THEORY = SGP/SGP4

EPOCH          = 2026-03-22T01:39:39.873600
MEAN_MOTION    = 15.54090854
ECCENTRICITY   = .00087204
INCLINATION    = 51.6330
RA_OF_ASC_NODE = 10.0770
ARG_OF_PERICENTER = 197.5309
MEAN_ANOMALY   = 162.5382

EPHEMERIS_TYPE = 0
CLASSIFICATION_TYPE = U
NORAD_CAT_ID   = 67686
ELEMENT_SET_NO = 999
REV_AT_EPOCH   = 671
BSTAR          = .97067871E-3
MEAN_MOTION_DOT = .64299E-3
MEAN_MOTION_DDOT = 0

CCSDS_OMM_VERS = 2.0
CREATION_DATE  = 
ORIGINATOR     = 

OBJECT_NAME    = HMU-SAT2
OBJECT_ID      = 1998-067YD
CENTER_NAME    = EARTH
REF_FRAME      = TEME
TIME_SYSTEM    = UTC
MEAN_ELEMENT_THEORY = SGP/SGP4

EPOCH          = 2026-03-22T02:00:47.226816
MEAN_MOTION    = 15.53052965
ECCENTRICITY   = .00083352
INCLINATION    = 51.6325
RA_OF_ASC_NODE = 10.1754
ARG_OF_PERICENTER = 200.1603
MEAN_ANOMALY   = 159.9059

EPHEMERIS_TYPE = 0
CLASSIFICATION_TYPE = U
NORAD_CAT_ID   = 67687
ELEMENT_SET_NO = 999
REV_AT_EPOCH   = 663
BSTAR          = .84409961E-3
MEAN_MOTION_DOT = .53693E-3
MEAN_MOTION_DDOT = 0

CCSDS_OMM_VERS = 2.0
CREATION_DATE  = 
ORIGINATOR     = 

OBJECT_NAME    = LEOPARD
OBJECT_ID      = 1998-067YE
CENTER_NAME    = EARTH
REF_FRAME      = TEME
TIME_SYSTEM    = UTC
MEAN_ELEMENT_THEORY = SGP/SGP4

EPOCH          = 2026-03-21T02:37:26.409216
MEAN_MOTION    = 15.53580320
ECCENTRICITY   = .00084068
INCLINATION    = 51.6330
RA_OF_ASC_NODE = 14.9166
ARG_OF_PERICENTER = 194.0087
MEAN_ANOMALY   = 166.0671

EPHEMERIS_TYPE = 0
CLASSIFICATION_TYPE = U
NORAD_CAT_ID   = 67688
ELEMENT_SET_NO = 999
REV_AT_EPOCH   = 648
BSTAR          = .78511675E-3
MEAN_MOTION_DOT = .50861E-3
MEAN_MOTION_DDOT = 0

CCSDS_OMM_VERS = 2.0
CREATION_DATE  = 
ORIGINATOR     = 

OBJECT_NAME    = CREW DRAGON 12
OBJECT_ID      = 2026-031A
CENTER_NAME    = EARTH
REF_FRAME      = TEME
TIME_SYSTEM    = UTC
MEAN_ELEMENT_THEORY = SGP/SGP4

EPOCH          = 2026-03-22T03:54:40.385952
MEAN_MOTION    = 15.48444672
ECCENTRICITY   = .00061864
INCLINATION    = 51.6343
RA_OF_ASC_NODE = 10.6992
ARG_OF_PERICENTER = 218.8034
MEAN_ANOMALY   = 141.2511

EPHEMERIS_TYPE = 0
CLASSIFICATION_TYPE = U
NORAD_CAT_ID   = 67796
ELEMENT_SET_NO = 999
REV_AT_EPOCH   = 55818
BSTAR          = .28686415E-3
MEAN_MOTION_DOT = .15089E-3
MEAN_MOTION_DDOT = 0

